[{"OBJECT_NAME":"NINGXIA-1 9","OBJECT_ID":"2021-064D","EPOCH":"2026-03-09T22:22:33.329280","MEAN_MOTION":14.08541534,"ECCENTRICITY":0.00078366,"INCLINATION":45.0035,"RA_OF_ASC_NODE":315.3923,"ARG_OF_PERICENTER":140.8679,"MEAN_ANOMALY":219.2725,"EPHEMERIS_TYPE":0,"CLASSIFICATION_TYPE":"U","NORAD_CAT_ID":49021,"ELEMENT_SET_NO":999,"REV_AT_EPOCH":24023,"BSTAR":1.224568e-5,"MEAN_MOTION_DOT":-1.11e-6,"MEAN_MOTION_DDOT":0},{"OBJECT_NAME":"THOR ABLESTAR DEB","OBJECT_ID":"1961-015BZ","EPOCH":"2026-03-09T13:28:49.232352","MEAN_MOTION":13.95705171,"ECCENTRICITY":0.0066222,"INCLINATION":66.8396,"RA_OF_ASC_NODE":114.2922,"ARG_OF_PERICENTER":160.0211,"MEAN_ANOMALY":200.3487,"EPHEMERIS_TYPE":0,"CLASSIFICATION_TYPE":"U","NORAD_CAT_ID":244,"ELEMENT_SET_NO":999,"REV_AT_EPOCH":28523,"BSTAR":0.00016365,"MEAN_MOTION_DOT":1.5e-6,"MEAN_MOTION_DDOT":0}]
